[{"OBJECT_NAME":"GEESAT-4 02","OBJECT_ID":"2025-170B","EPOCH":"2026-03-09T22:56:42.362304","MEAN_MOTION":14.83538313,"ECCENTRICITY":0.00104864,"INCLINATION":49.9842,"RA_OF_ASC_NODE":274.4013,"ARG_OF_PERICENTER":60.1628,"MEAN_ANOMALY":300.0351,"EPHEMERIS_TYPE":0,"CLASSIFICATION_TYPE":"U","NORAD_CAT_ID":65120,"ELEMENT_SET_NO":999,"REV_AT_EPOCH":3172,"BSTAR":0.00034262722,"MEAN_MOTION_DOT":2.626e-5,"MEAN_MOTION_DDOT":0},{"OBJECT_NAME":"UPM\/LBSAT","OBJECT_ID":"1995-033C","EPOCH":"2026-03-09T21:38:56.262912","MEAN_MOTION":14.84552678,"ECCENTRICITY":0.00065377,"INCLINATION":98.2957,"RA_OF_ASC_NODE":36.2934,"ARG_OF_PERICENTER":113.7867,"MEAN_ANOMALY":246.4032,"EPHEMERIS_TYPE":0,"CLASSIFICATION_TYPE":"U","NORAD_CAT_ID":23607,"ELEMENT_SET_NO":999,"REV_AT_EPOCH":65124,"BSTAR":0.00021798937,"MEAN_MOTION_DOT":1.781e-5,"MEAN_MOTION_DDOT":0}]
